     2.100          NAVIGATION                              RINEX VERSION / TYPE
fic2rin                                 12/02/2017 00:07:39 PGM / RUN BY / DATE
                                                            END OF HEADER
 1 17 12  1  2  0  0.0 -.138087198138D-04 -.250111042988D-11  .000000000000D+00
     .140000000000D+02  .373437500000D+02  .444875673715D-08 -.246868503462D+01
     .198185443878D-05  .714851578232D-02  .793859362602D-05  .515367189217D+04
     .439200000000D+06  .298023223877D-07  .507273476856D+00 -.100582838058D-06
     .969453750326D+00  .230781250000D+03  .629099280442D+00 -.794068790438D-08
     .632169189527D-09  .100000000000D+01  .197700000000D+04  .000000000000D+00
     .240000000000D+01  .000000000000D+00  .558793544769D-08  .140000000000D+02
     .432006000000D+06  .400000000000D+01
 2 17 12  1  2  0  0.0  .267146155238D-03 -.989075488178D-11  .000000000000D+00
     .490000000000D+02  .416875000000D+02  .483127267047D-08 -.204517877217D+01
     .218674540520D-05  .173537412193D-01  .747106969357D-05  .515362946892D+04
     .439200000000D+06  .273808836937D-06  .449920108567D+00 -.409781932831D-07
     .948497829199D+00  .227656250000D+03 -.193315331866D+01 -.797247494273D-08
     .609668252273D-09  .100000000000D+01  .197700000000D+04  .000000000000D+00
     .240000000000D+01  .000000000000D+00 -.204890966415D-07  .490000000000D+02
     .432006000000D+06  .400000000000D+01
 3 17 12  1  2  0  0.0 -.341152772307D-04  .579802872380D-11  .000000000000D+00
     .990000000000D+02 -.443750000000D+02  .489163232755D-08  .274538525003D+01
    -.229105353355D-05  .113382458221D-02  .582076609135D-05  .515359868622D+04
     .439200000000D+06  .391155481339D-07  .155008965911D+01 -.745058059692D-08
     .959871745162D+00  .266156250000D+03  .597790089111D+00 -.830784605514D-08
    -.342514267094D-09  .100000000000D+01  .197700000000D+04  .000000000000D+00
     .240000000000D+01  .000000000000D+00  .232830643654D-08  .990000000000D+02
     .432006000000D+06  .400000000000D+01
 5 17 12  1  2  0  0.0 -.211154110730D-04  .113686837722D-11  .000000000000D+00
     .104000000000D+03 -.439062500000D+02  .515521473539D-08  .474186367537D+00
    -.216998159885D-05  .527998746838D-02  .557117164135D-05  .515359375954D+04
     .439200000000D+06 -.372529029846D-07  .153069333154D+01  .726431608200D-07
     .946793725668D+00  .263375000000D+03  .631093275820D+00 -.849642533879D-08
    -.311084386485D-09  .100000000000D+01  .197700000000D+04  .000000000000D+00
     .240000000000D+01  .000000000000D+00 -.107102096081D-07  .104000000000D+03
     .432006000000D+06  .400000000000D+01
 6 17 12  1  2  0  0.0  .411832239479D-03  .125055521494D-11  .000000000000D+00
     .540000000000D+02  .377812500000D+02  .449304429619D-08 -.219336970816D+01
     .195205211639D-05  .685191713274D-03  .764057040215D-05  .515379087448D+04
     .439200000000D+06  .130385160446D-07  .498935690834D+00  .000000000000D+00
     .969205441926D+00  .238687500000D+03 -.127865777305D+01 -.803462038848D-08
     .522878922863D-09  .100000000000D+01  .197700000000D+04  .000000000000D+00
     .240000000000D+01  .000000000000D+00  .465661287308D-08  .540000000000D+02
     .432006000000D+06  .400000000000D+01
 7 17 12  1  2  0  0.0  .272223260254D-03 -.522959453519D-11  .000000000000D+00
     .670000000000D+02  .121593750000D+03  .468805241906D-08 -.312449313959D+01
     .618025660515D-05  .110837855609D-01  .559911131859D-05  .515371175194D+04
     .439200000000D+06 -.124797224998D-06 -.262022874332D+01 -.176951289177D-06
     .960662205151D+00  .273656250000D+03 -.254686586227D+01 -.815783980677D-08
     .409302763389D-09  .100000000000D+01  .197700000000D+04  .000000000000D+00
     .240000000000D+01  .000000000000D+00 -.111758708954D-07  .670000000000D+02
     .432006000000D+06  .400000000000D+01
 8 17 12  1  2  0  0.0 -.825161114335D-04 -.136424205266D-11  .000000000000D+00
     .650000000000D+02 -.864375000000D+02  .400552398901D-08  .234097305287D+00
    -.455603003502D-05  .294428260531D-02  .127144157887D-04  .515373419189D+04
     .439200000000D+06  .353902578354D-07 -.556118264901D+00 -.260770320892D-07
     .968395288134D+00  .140031250000D+03 -.628115532402D+00 -.783461205733D-08
    -.896465912832D-10  .100000000000D+01  .197700000000D+04  .000000000000D+00
     .240000000000D+01  .000000000000D+00  .558793544769D-08  .650000000000D+02
     .432006000000D+06  .400000000000D+01
 9 17 12  1  2  0  0.0  .477939378470D-03  .443378667114D-11  .000000000000D+00
     .200000000000D+02  .249375000000D+02  .436875340469D-08 -.202784613193D-01
     .112690031528D-05  .106715818401D-02  .133346766233D-04  .515373624039D+04
     .439200000000D+06 -.447034835815D-07  .258519318219D+01 -.149011611938D-07
     .953224599436D+00  .117406250000D+03  .174599510046D+01 -.789354308347D-08
    -.235366946835D-09  .100000000000D+01  .197700000000D+04  .000000000000D+00
     .240000000000D+01  .000000000000D+00  .931322574615D-09  .200000000000D+02
     .432006000000D+06  .400000000000D+01
10 17 12  1  2  0  0.0  .121171586215D-03  .716227077646D-11  .000000000000D+00
     .140000000000D+02 -.423750000000D+02  .491699052668D-08  .183841834847D+01
    -.217184424400D-05  .300761417020D-02  .606104731560D-05  .515366164398D+04
     .439200000000D+06 -.372529029846D-07  .154651176672D+01  .100582838058D-06
     .959999627609D+00  .261250000000D+03 -.289085421481D+01 -.830141721592D-08
    -.373944147703D-09  .100000000000D+01  .197700000000D+04  .000000000000D+00
     .240000000000D+01  .000000000000D+00  .186264514923D-08  .140000000000D+02
     .432006000000D+06  .400000000000D+01
11 17 12  1  2  0  0.0 -.728772953153D-03 -.170530256582D-11  .000000000000D+00
     .100000000000D+02  .261875000000D+02  .552487299028D-08 -.311859142523D+01
     .148452818394D-05  .168800817337D-01  .109951943159D-04  .515374800491D+04
     .439200000000D+06  .296160578728D-06  .923463702084D-01  .968575477600D-07
     .903504701112D+00  .132093750000D+03  .172285458036D+01 -.825677249915D-08
     .526807657939D-09  .100000000000D+01  .197700000000D+04  .000000000000D+00
     .240000000000D+01  .000000000000D+00 -.121071934700D-07  .100000000000D+02
     .432006000000D+06  .400000000000D+01
12 17 12  1  2  0  0.0  .362449791282D-03 -.170530256582D-11  .000000000000D+00
     .840000000000D+02 -.722812500000D+02  .411552857114D-08  .256979017917D+01
    -.392645597458D-05  .662037602160D-02  .361911952496D-05  .515368337250D+04
     .439200000000D+06 -.819563865662D-07 -.153128389109D+01 -.102445483208D-06
     .987768197310D+00  .321656250000D+03  .907972430982D+00 -.801497671309D-08
    -.368586781690D-09  .100000000000D+01  .197700000000D+04  .000000000000D+00
     .340000000000D+01  .000000000000D+00 -.125728547573D-07  .840000000000D+02
     .432006000000D+06  .400000000000D+01
13 17 12  1  2  0  0.0 -.944281928241D-04 -.341060513165D-12  .000000000000D+00
     .380000000000D+02  .442500000000D+02  .402731061080D-08 -.178125234634D+01
     .237487256527D-05  .364419328980D-02  .122338533401D-04  .515366802979D+04
     .439200000000D+06  .279396772385D-07  .271416873310D+01  .651925802231D-07
     .969223400708D+00  .148875000000D+03  .167008840675D+01 -.771960726691D-08
    -.121076471892D-09  .100000000000D+01  .197700000000D+04  .000000000000D+00
     .240000000000D+01  .000000000000D+00 -.116415321827D-07  .380000000000D+02
     .432006000000D+06  .400000000000D+01
14 17 12  1  2  0  0.0 -.896812416613D-04 -.795807864051D-12  .000000000000D+00
     .210000000000D+02  .595312500000D+02  .424303388225D-08 -.589854462195D+00
     .310689210892D-05  .925205112435D-02  .133309513330D-04  .515372910500D+04
     .439200000000D+06 -.651925802231D-07  .267347925691D+01  .130385160446D-06
     .961723749712D+00  .126750000000D+03 -.195276963107D+01 -.798676125209D-08
    -.126790995640D-09  .100000000000D+01  .197700000000D+04  .000000000000D+00
     .240000000000D+01  .000000000000D+00 -.977888703346D-08  .210000000000D+02
     .432006000000D+06  .400000000000D+01
15 17 12  1  2  0  0.0 -.357322394848D-03 -.113686837722D-12  .000000000000D+00
     .100000000000D+02  .167500000000D+02  .501556606132D-08 -.111669637747D+01
     .901520252228D-06  .998913520016D-02  .115931034088D-04  .515365804482D+04
     .439200000000D+06  .251457095146D-06  .251895035415D+01  .260770320892D-07
     .928740476854D+00  .134750000000D+03  .641887627528D+00 -.820819904729D-08
    -.253939149013D-09  .100000000000D+01  .197700000000D+04  .000000000000D+00
     .240000000000D+01  .000000000000D+00 -.107102096081D-07  .100000000000D+02
     .432006000000D+06  .400000000000D+01
16 17 12  1  2  0  0.0  .359178520739D-04 -.341060513165D-12  .000000000000D+00
     .770000000000D+02 -.814062500000D+02  .428339270621D-08  .610395406127D+00
    -.405870378017D-05  .950341101270D-02  .363215804100D-05  .515354184151D+04
     .439200000000D+06  .353902578354D-07 -.151238265304D+01  .156462192535D-06
     .988221068471D+00  .321000000000D+03  .448248597388D+00 -.832106089130D-08
    -.505378193887D-09  .100000000000D+01  .197700000000D+04  .000000000000D+00
     .240000000000D+01  .000000000000D+00 -.107102096081D-07  .770000000000D+02
     .432006000000D+06  .400000000000D+01
17 17 12  1  2  0  0.0 -.141077674925D-03  .250111042988D-11  .000000000000D+00
     .550000000000D+02 -.680000000000D+02  .391552023999D-08 -.298448610965D+00
    -.349804759026D-05  .122048008488D-01  .117905437946D-04  .515372433090D+04
     .439200000000D+06 -.875443220139D-07 -.496032126141D+00  .128522515297D-06
     .981767300034D+00  .168062500000D+03 -.182610410534D+01 -.789390024120D-08
     .214294640518D-11  .100000000000D+01  .197700000000D+04  .000000000000D+00
     .240000000000D+01  .000000000000D+00 -.111758708954D-07  .550000000000D+02
     .432006000000D+06  .400000000000D+01
